CCSDS_OMM_VERS = 2.0
CREATION_DATE  = 
ORIGINATOR     = 

OBJECT_NAME    = UNKNOWN
OBJECT_ID      = 
CENTER_NAME    = EARTH
REF_FRAME      = TEME
TIME_SYSTEM    = UTC
MEAN_ELEMENT_THEORY = SGP/SGP4

EPOCH          = 2026-03-24T02:30:13.469184
MEAN_MOTION    = 13.09061566
ECCENTRICITY   = .00227785
INCLINATION    = 90.3343
RA_OF_ASC_NODE = 31.8391
ARG_OF_PERICENTER = 164.4939
MEAN_ANOMALY   = 195.6891

EPHEMERIS_TYPE = 0
CLASSIFICATION_TYPE = U
NORAD_CAT_ID   = 270186
ELEMENT_SET_NO = 999
REV_AT_EPOCH   = 30154
BSTAR          = -.15505792E-3
MEAN_MOTION_DOT = -.46E-6
MEAN_MOTION_DDOT = 0

CCSDS_OMM_VERS = 2.0
CREATION_DATE  = 
ORIGINATOR     = 

OBJECT_NAME    = UNKNOWN
OBJECT_ID      = 
CENTER_NAME    = EARTH
REF_FRAME      = TEME
TIME_SYSTEM    = UTC
MEAN_ELEMENT_THEORY = SGP/SGP4

EPOCH          = 2026-03-28T02:42:01.291680
MEAN_MOTION    = 14.46935402
ECCENTRICITY   = .00177702
INCLINATION    = 74.0361
RA_OF_ASC_NODE = 31.7138
ARG_OF_PERICENTER = 89.5671
MEAN_ANOMALY   = 270.7524

EPHEMERIS_TYPE = 0
CLASSIFICATION_TYPE = U
NORAD_CAT_ID   = 270187
ELEMENT_SET_NO = 999
REV_AT_EPOCH   = 6481
BSTAR          = .53663299E-3
MEAN_MOTION_DOT = .1927E-4
MEAN_MOTION_DDOT = 0

CCSDS_OMM_VERS = 2.0
CREATION_DATE  = 
ORIGINATOR     = 

OBJECT_NAME    = UNKNOWN
OBJECT_ID      = 
CENTER_NAME    = EARTH
REF_FRAME      = TEME
TIME_SYSTEM    = UTC
MEAN_ELEMENT_THEORY = SGP/SGP4

EPOCH          = 2026-03-25T15:03:23.733792
MEAN_MOTION    = 12.44710843
ECCENTRICITY   = .07018172
INCLINATION    = 74.3199
RA_OF_ASC_NODE = 209.2819
ARG_OF_PERICENTER = 325.4884
MEAN_ANOMALY   = 30.2423

EPHEMERIS_TYPE = 0
CLASSIFICATION_TYPE = U
NORAD_CAT_ID   = 270188
ELEMENT_SET_NO = 999
REV_AT_EPOCH   = 28597
BSTAR          = .40990236E-2
MEAN_MOTION_DOT = .1383E-4
MEAN_MOTION_DDOT = 0

CCSDS_OMM_VERS = 2.0
CREATION_DATE  = 
ORIGINATOR     = 

OBJECT_NAME    = UNKNOWN
OBJECT_ID      = 
CENTER_NAME    = EARTH
REF_FRAME      = TEME
TIME_SYSTEM    = UTC
MEAN_ELEMENT_THEORY = SGP/SGP4

EPOCH          = 2026-03-09T03:44:07.775520
MEAN_MOTION    = 11.13601189
ECCENTRICITY   = .10684728
INCLINATION    = 63.4120
RA_OF_ASC_NODE = 42.2982
ARG_OF_PERICENTER = 300.5984
MEAN_ANOMALY   = 49.3748

EPHEMERIS_TYPE = 0
CLASSIFICATION_TYPE = U
NORAD_CAT_ID   = 270189
ELEMENT_SET_NO = 999
REV_AT_EPOCH   = 25530
BSTAR          = -.16381043E-3
MEAN_MOTION_DOT = -.63E-6
MEAN_MOTION_DDOT = 0

CCSDS_OMM_VERS = 2.0
CREATION_DATE  = 
ORIGINATOR     = 

OBJECT_NAME    = UNKNOWN
OBJECT_ID      = 
CENTER_NAME    = EARTH
REF_FRAME      = TEME
TIME_SYSTEM    = UTC
MEAN_ELEMENT_THEORY = SGP/SGP4

EPOCH          = 2026-03-27T17:58:44.922720
MEAN_MOTION    = 14.38541601
ECCENTRICITY   = .00333203
INCLINATION    = 98.6267
RA_OF_ASC_NODE = 92.7784
ARG_OF_PERICENTER = 56.7428
MEAN_ANOMALY   = 303.6945

EPHEMERIS_TYPE = 0
CLASSIFICATION_TYPE = U
NORAD_CAT_ID   = 270190
ELEMENT_SET_NO = 999
REV_AT_EPOCH   = 33069
BSTAR          = .15151804E-3
MEAN_MOTION_DOT = .421E-5
MEAN_MOTION_DDOT = 0

CCSDS_OMM_VERS = 2.0
CREATION_DATE  = 
ORIGINATOR     = 

OBJECT_NAME    = UNKNOWN
OBJECT_ID      = 
CENTER_NAME    = EARTH
REF_FRAME      = TEME
TIME_SYSTEM    = UTC
MEAN_ELEMENT_THEORY = SGP/SGP4

EPOCH          = 2026-02-28T14:03:41.001408
MEAN_MOTION    = 12.91475583
ECCENTRICITY   = .02224704
INCLINATION    = 62.8995
RA_OF_ASC_NODE = 183.0165
ARG_OF_PERICENTER = 295.5924
MEAN_ANOMALY   = 62.2228

EPHEMERIS_TYPE = 0
CLASSIFICATION_TYPE = U
NORAD_CAT_ID   = 270191
ELEMENT_SET_NO = 999
REV_AT_EPOCH   = 29499
BSTAR          = .94667606E-3
MEAN_MOTION_DOT = .202E-5
MEAN_MOTION_DDOT = 0

CCSDS_OMM_VERS = 2.0
CREATION_DATE  = 
ORIGINATOR     = 

OBJECT_NAME    = UNKNOWN
OBJECT_ID      = 
CENTER_NAME    = EARTH
REF_FRAME      = TEME
TIME_SYSTEM    = UTC
MEAN_ELEMENT_THEORY = SGP/SGP4

EPOCH          = 2026-03-12T01:09:51.075648
MEAN_MOTION    = 12.97953889
ECCENTRICITY   = .00189213
INCLINATION    = 90.2578
RA_OF_ASC_NODE = 4.6806
ARG_OF_PERICENTER = 316.9261
MEAN_ANOMALY   = 43.0378

EPHEMERIS_TYPE = 0
CLASSIFICATION_TYPE = U
NORAD_CAT_ID   = 270192
ELEMENT_SET_NO = 999
REV_AT_EPOCH   = 29745
BSTAR          = .48237916E-2
MEAN_MOTION_DOT = .1418E-4
MEAN_MOTION_DDOT = 0

CCSDS_OMM_VERS = 2.0
CREATION_DATE  = 
ORIGINATOR     = 

OBJECT_NAME    = UNKNOWN
OBJECT_ID      = 
CENTER_NAME    = EARTH
REF_FRAME      = TEME
TIME_SYSTEM    = UTC
MEAN_ELEMENT_THEORY = SGP/SGP4

EPOCH          = 2026-03-24T09:07:15.913056
MEAN_MOTION    = 13.46243514
ECCENTRICITY   = .00461823
INCLINATION    = 100.4369
RA_OF_ASC_NODE = 322.3656
ARG_OF_PERICENTER = 204.2162
MEAN_ANOMALY   = 155.6796

EPHEMERIS_TYPE = 0
CLASSIFICATION_TYPE = U
NORAD_CAT_ID   = 270194
ELEMENT_SET_NO = 999
REV_AT_EPOCH   = 30992
BSTAR          = .2616359E-2
MEAN_MOTION_DOT = .1531E-4
MEAN_MOTION_DDOT = 0

CCSDS_OMM_VERS = 2.0
CREATION_DATE  = 
ORIGINATOR     = 

OBJECT_NAME    = UNKNOWN
OBJECT_ID      = 
CENTER_NAME    = EARTH
REF_FRAME      = TEME
TIME_SYSTEM    = UTC
MEAN_ELEMENT_THEORY = SGP/SGP4

EPOCH          = 2026-03-28T00:56:52.180512
MEAN_MOTION    = 12.96992434
ECCENTRICITY   = .00278846
INCLINATION    = 90.2463
RA_OF_ASC_NODE = 7.1407
ARG_OF_PERICENTER = 222.6048
MEAN_ANOMALY   = 137.2909

EPHEMERIS_TYPE = 0
CLASSIFICATION_TYPE = U
NORAD_CAT_ID   = 270195
ELEMENT_SET_NO = 999
REV_AT_EPOCH   = 29772
BSTAR          = -.67718846E-3
MEAN_MOTION_DOT = -.188E-5
MEAN_MOTION_DDOT = 0

CCSDS_OMM_VERS = 2.0
CREATION_DATE  = 
ORIGINATOR     = 

OBJECT_NAME    = UNKNOWN
OBJECT_ID      = 
CENTER_NAME    = EARTH
REF_FRAME      = TEME
TIME_SYSTEM    = UTC
MEAN_ELEMENT_THEORY = SGP/SGP4

EPOCH          = 2026-03-24T13:52:09.789312
MEAN_MOTION    = 13.95043365
ECCENTRICITY   = .00543185
INCLINATION    = 64.6970
RA_OF_ASC_NODE = 195.0929
ARG_OF_PERICENTER = 199.0214
MEAN_ANOMALY   = 160.8822

EPHEMERIS_TYPE = 0
CLASSIFICATION_TYPE = U
NORAD_CAT_ID   = 270196
ELEMENT_SET_NO = 999
REV_AT_EPOCH   = 32148
BSTAR          = .47792819E-3
MEAN_MOTION_DOT = .559E-5
MEAN_MOTION_DDOT = 0

CCSDS_OMM_VERS = 2.0
CREATION_DATE  = 
ORIGINATOR     = 

OBJECT_NAME    = UNKNOWN
OBJECT_ID      = 
CENTER_NAME    = EARTH
REF_FRAME      = TEME
TIME_SYSTEM    = UTC
MEAN_ELEMENT_THEORY = SGP/SGP4

EPOCH          = 2026-03-22T02:30:02.706336
MEAN_MOTION    = 13.87075752
ECCENTRICITY   = .03631282
INCLINATION    = 97.5761
RA_OF_ASC_NODE = 28.8017
ARG_OF_PERICENTER = 330.2351
MEAN_ANOMALY   = 27.8582

EPHEMERIS_TYPE = 0
CLASSIFICATION_TYPE = U
NORAD_CAT_ID   = 270197
ELEMENT_SET_NO = 999
REV_AT_EPOCH   = 31718
BSTAR          = .23670713E-2
MEAN_MOTION_DOT = .4642E-4
MEAN_MOTION_DDOT = 0

CCSDS_OMM_VERS = 2.0
CREATION_DATE  = 
ORIGINATOR     = 

OBJECT_NAME    = UNKNOWN
OBJECT_ID      = 
CENTER_NAME    = EARTH
REF_FRAME      = TEME
TIME_SYSTEM    = UTC
MEAN_ELEMENT_THEORY = SGP/SGP4

EPOCH          = 2026-03-27T03:42:08.292096
MEAN_MOTION    = 13.12711538
ECCENTRICITY   = .06005795
INCLINATION    = 72.7232
RA_OF_ASC_NODE = 243.6469
ARG_OF_PERICENTER = 182.8168
MEAN_ANOMALY   = 176.9480

EPHEMERIS_TYPE = 0
CLASSIFICATION_TYPE = U
NORAD_CAT_ID   = 270199
ELEMENT_SET_NO = 999
REV_AT_EPOCH   = 30081
BSTAR          = .28215925E-2
MEAN_MOTION_DOT = .2507E-4
MEAN_MOTION_DDOT = 0

CCSDS_OMM_VERS = 2.0
CREATION_DATE  = 
ORIGINATOR     = 

OBJECT_NAME    = UNKNOWN
OBJECT_ID      = 
CENTER_NAME    = EARTH
REF_FRAME      = TEME
TIME_SYSTEM    = UTC
MEAN_ELEMENT_THEORY = SGP/SGP4

EPOCH          = 2026-03-23T12:06:16.980480
MEAN_MOTION    = 12.95757018
ECCENTRICITY   = .00344812
INCLINATION    = 90.2552
RA_OF_ASC_NODE = 11.9767
ARG_OF_PERICENTER = 37.0870
MEAN_ANOMALY   = 323.2623

EPHEMERIS_TYPE = 0
CLASSIFICATION_TYPE = U
NORAD_CAT_ID   = 270200
ELEMENT_SET_NO = 999
REV_AT_EPOCH   = 29706
BSTAR          = .56249271E-3
MEAN_MOTION_DOT = .167E-5
MEAN_MOTION_DDOT = 0

CCSDS_OMM_VERS = 2.0
CREATION_DATE  = 
ORIGINATOR     = 

OBJECT_NAME    = UNKNOWN
OBJECT_ID      = 
CENTER_NAME    = EARTH
REF_FRAME      = TEME
TIME_SYSTEM    = UTC
MEAN_ELEMENT_THEORY = SGP/SGP4

EPOCH          = 2026-03-27T10:37:35.897376
MEAN_MOTION    = 14.03084272
ECCENTRICITY   = .00320026
INCLINATION    = 82.5331
RA_OF_ASC_NODE = 345.1056
ARG_OF_PERICENTER = 347.7561
MEAN_ANOMALY   = 12.2828

EPHEMERIS_TYPE = 0
CLASSIFICATION_TYPE = U
NORAD_CAT_ID   = 270202
ELEMENT_SET_NO = 999
REV_AT_EPOCH   = 32232
BSTAR          = .16154053E-2
MEAN_MOTION_DOT = .2537E-4
MEAN_MOTION_DDOT = 0

CCSDS_OMM_VERS = 2.0
CREATION_DATE  = 
ORIGINATOR     = 

OBJECT_NAME    = UNKNOWN
OBJECT_ID      = 
CENTER_NAME    = EARTH
REF_FRAME      = TEME
TIME_SYSTEM    = UTC
MEAN_ELEMENT_THEORY = SGP/SGP4

EPOCH          = 2026-03-21T12:06:43.475040
MEAN_MOTION    = 13.00663660
ECCENTRICITY   = .00358986
INCLINATION    = 90.2529
RA_OF_ASC_NODE = 10.4904
ARG_OF_PERICENTER = 130.8049
MEAN_ANOMALY   = 229.6196

EPHEMERIS_TYPE = 0
CLASSIFICATION_TYPE = U
NORAD_CAT_ID   = 270203
ELEMENT_SET_NO = 999
REV_AT_EPOCH   = 29910
BSTAR          = .44601827E-3
MEAN_MOTION_DOT = .144E-5
MEAN_MOTION_DDOT = 0

CCSDS_OMM_VERS = 2.0
CREATION_DATE  = 
ORIGINATOR     = 

OBJECT_NAME    = UNKNOWN
OBJECT_ID      = 
CENTER_NAME    = EARTH
REF_FRAME      = TEME
TIME_SYSTEM    = UTC
MEAN_ELEMENT_THEORY = SGP/SGP4

EPOCH          = 2026-03-27T10:38:19.528512
MEAN_MOTION    = 13.87603190
ECCENTRICITY   = .0059279
INCLINATION    = 89.9286
RA_OF_ASC_NODE = 345.7612
ARG_OF_PERICENTER = 246.1395
MEAN_ANOMALY   = 113.3558

EPHEMERIS_TYPE = 0
CLASSIFICATION_TYPE = U
NORAD_CAT_ID   = 270204
ELEMENT_SET_NO = 999
REV_AT_EPOCH   = 31833
BSTAR          = .2170024E-2
MEAN_MOTION_DOT = .2611E-4
MEAN_MOTION_DDOT = 0

